OBJECT_NAME,OBJECT_ID,EPOCH,MEAN_MOTION,ECCENTRICITY,INCLINATION,RA_OF_ASC_NODE,ARG_OF_PERICENTER,MEAN_ANOMALY,EPHEMERIS_TYPE,CLASSIFICATION_TYPE,NORAD_CAT_ID,ELEMENT_SET_NO,REV_AT_EPOCH,BSTAR,MEAN_MOTION_DOT,MEAN_MOTION_DDOT
STARLINK-1527,2020-055X,2026-06-14T08:01:21.186336,15.31693902,.0001096,53.1619,24.4118,87.2757,272.8370,0,U,46048,999,32384,.28911E-4,.532E-5,0
STARLINK-1540,2020-055AA,2026-06-14T07:41:14.969760,15.31699183,.000111,53.1591,24.6881,97.2620,262.8508,0,U,46051,999,32388,.94461E-4,.2567E-4,0
STARLINK-1541,2020-055AB,2026-06-14T14:00:01.999008,15.86942979,.0005516,53.1567,4.6655,269.8333,206.1488,0,U,46052,999,600,.68106E-3,.182571E-2,0
STARLINK-1543,2020-055AC,2026-06-13T21:37:10.632000,15.31706386,.0001653,53.1601,26.4442,75.1972,284.9213,0,U,46053,999,32381,.13043E-3,.3685E-4,0
STARLINK-1548,2020-055AD,2026-06-14T07:21:05.401728,15.31701955,.0001005,53.1593,24.6315,97.6455,262.4661,0,U,46054,999,32387,.75948E-4,.1993E-4,0
STARLINK-1554,2020-055AE,2026-06-13T21:30:27.599328,15.31698397,.00011756,53.1602,26.4875,86.7422,273.3714,0,U,46055,999,32381,-.16922224E-3,-.5612E-4,0
STARLINK-1564,2020-055AH,2026-06-13T21:23:56.047488,15.30185681,.00014353,53.1631,27.5237,96.3482,263.7682,0,U,46058,999,32379,.10616178E-4,-.45E-6,0
STARLINK-1570,2020-055AJ,2026-06-14T07:34:29.292384,15.31696460,.0001236,53.1628,24.4145,114.9912,245.1218,0,U,46059,999,32383,-.20876E-4,-.1013E-4,0
STARLINK-1572,2020-055AK,2026-06-14T07:54:57.536640,15.30175412,.0001365,53.1614,25.2299,96.4002,263.7154,0,U,46060,999,32383,.80642E-5,-.12E-5,0
STARLINK-1573,2020-055AL,2026-06-14T07:14:20.756832,15.31696952,.0000883,53.1609,24.4482,113.7082,246.4012,0,U,46061,999,32387,.2773E-4,.496E-5,0
STARLINK-1577,2020-055AN,2026-06-14T07:54:37.052064,15.31690770,.000139,53.1613,24.3120,77.2769,282.8388,0,U,46063,999,32387,.13971E-4,.68E-6,0
STARLINK-1583,2020-055AP,2026-06-14T08:14:50.413056,15.31703041,.0001197,53.1619,24.7507,77.1496,282.9640,0,U,46064,999,32386,.42822E-4,.964E-5,0
STARLINK-1536,2020-055AV,2026-06-14T06:42:44.637120,15.31669169,.0000982,53.1583,12.4364,124.4224,235.6870,0,U,46070,999,32403,-.37136E-3,-.11859E-3,0
STARLINK-1542,2020-055AY,2026-06-14T07:17:49.805952,15.31701955,.000118,53.1606,15.2887,87.8405,272.2732,0,U,46073,999,32398,.53994E-4,.1311E-4,0
STARLINK-1549,2020-055AZ,2026-06-14T06:32:15.089568,15.29861156,.0002429,53.0494,12.6161,145.0724,215.0435,0,U,46074,999,32400,.12259E-2,.35747E-3,0
STARLINK-1551,2020-055BA,2026-06-14T14:00:01.999008,15.31706869,.0001077,53.1570,10.9570,103.2335,181.9048,0,U,46075,999,580,.10761E-2,.33184E-3,0
STARLINK-1552,2020-055BB,2026-06-13T20:45:48.482208,15.31697354,.00009536,53.1597,13.8859,100.5918,259.5191,0,U,46076,999,32395,.12443998E-4,.21E-6,0
STARLINK-1559,2020-055BC,2026-06-14T05:23:34.307232,15.38960894,.0000233,53.0247,341.2906,143.6554,216.4464,0,U,46077,999,32440,.11556E-2,.45109E-3,0
STARLINK-1566,2020-055BE,2026-06-13T17:44:34.408032,15.31691548,.00009926,53.1602,14.3238,98.1361,261.9753,0,U,46079,999,32395,.8586367E-5,-.99E-6,0
STARLINK-1568,2020-055BF,2026-06-14T12:00:26.904960,15.54882748,.0002865,53.0591,288.1417,63.4931,296.6372,0,U,46080,999,32521,.66637E-3,.45066E-3,0
STARLINK-1578,2020-055BH,2026-06-13T20:58:48.891072,15.31693102,.00010073,53.1591,14.2114,93.0560,267.0557,0,U,46082,999,32396,-.93239894E-4,-.3256E-4,0
STARLINK-1579,2020-055BJ,2026-06-13T20:39:04.649472,15.31700712,.0001091,53.1596,13.8101,81.1028,279.0097,0,U,46083,999,32396,.14606744E-3,.417E-4,0
BSAT-4B,2020-056A,2026-06-13T11:57:51.918912,1.00268721,.00037461,0.0192,98.5475,17.2668,75.2961,0,U,46112,999,2135,0,0,0
MEV-2,2020-056B,2026-06-14T09:40:50.807712,1.00269700,.0000193,0.0108,324.0878,256.5276,186.2869,0,U,46113,999,8052,0,-.4E-7,0
GALAXY 30 (G-30),2020-056C,2026-06-14T10:48:04.314816,1.00270496,.0002058,0.0177,5.0992,79.2407,215.4260,0,U,46114,999,2126,0,.44E-6,0
STARLINK-1622,2020-057M,2026-06-14T14:00:01.999008,15.87667463,.0005477,53.0131,101.8593,103.1776,249.6650,0,U,46128,999,589,.93445E-3,.262301E-2,0
STARLINK-1623,2020-057N,2026-06-14T14:00:01.999008,15.76585799,.0005713,53.0382,140.6096,57.0319,235.5883,0,U,46129,999,593,.10855E-3,.17046E-3,0
STARLINK-1596,2020-057AA,2026-06-14T04:10:09.820992,15.60927331,.00066865,53.0324,125.8546,57.9644,302.2017,0,U,46141,999,32226,.22722426E-2,.198276E-2,0
STARLINK-1597,2020-057AB,2026-06-14T07:40:04.455264,15.76103540,.0005242,53.0380,181.6858,45.2682,314.8763,0,U,46142,999,32148,.74666E-3,.120012E-2,0
STARLINK-1606,2020-057AD,2026-06-14T14:00:01.999008,16.00049962,.0003983,53.0303,132.2066,198.7359,155.2121,0,U,46144,999,585,.87168E-3,.456386E-2,.10089E-3
