STARLINK-1527           
1 46048U 20055X   26165.33427299  .00000532  00000+0  28911-4 0  9997
2 46048  53.1619  24.4118 0001096  87.2757 272.8370 15.31693902323849
STARLINK-1540           
1 46051U 20055AA  26165.32031215  .00002567  00000+0  94461-4 0  9992
2 46051  53.1591  24.6881 0001110  97.2620 262.8508 15.31699183323881
STARLINK-1541           
1 46052U 20055AB  26165.58335647  .00182571  00000+0  68106-3 0  9997
2 46052  53.1567   4.6655 0005516 269.8333 206.1488 15.86942979  6008
STARLINK-1543           
1 46053U 20055AC  26164.90081750  .00003685  00000+0  13043-3 0  9994
2 46053  53.1601  26.4442 0001653  75.1972 284.9213 15.31706386323810
STARLINK-1548           
1 46054U 20055AD  26165.30631252  .00001993  00000+0  75948-4 0  9991
2 46054  53.1593  24.6315 0001005  97.6455 262.4661 15.31701955323877
STARLINK-1554           
1 46055U 20055AE  26164.89615277 -.00005612  00000+0 -16922-3 0  9994
2 46055  53.1602  26.4875 0001175  86.7422 273.3714 15.31698397323810
STARLINK-1564           
1 46058U 20055AH  26164.89162092 -.00000045  00000+0  10616-4 0  9998
2 46058  53.1631  27.5237 0001435  96.3482 263.7682 15.30185681323791
STARLINK-1570           
1 46059U 20055AJ  26165.31561681 -.00001013  00000+0 -20876-4 0  9990
2 46059  53.1628  24.4145 0001236 114.9912 245.1218 15.31696460323833
STARLINK-1572           
1 46060U 20055AK  26165.32983260 -.00000120  00000+0  80642-5 0  9999
2 46060  53.1614  25.2299 0001365  96.4002 263.7154 15.30175412323839
STARLINK-1573           
1 46061U 20055AL  26165.30162913  .00000496  00000+0  27730-4 0  9995
2 46061  53.1609  24.4482 0000883 113.7082 246.4012 15.31696952323877
STARLINK-1577           
1 46063U 20055AN  26165.32959551  .00000068  00000+0  13971-4 0  9998
2 46063  53.1613  24.3120 0001390  77.2769 282.8388 15.31690770323874
STARLINK-1583           
1 46064U 20055AP  26165.34363904  .00000964  00000+0  42822-4 0  9994
2 46064  53.1619  24.7507 0001197  77.1496 282.9640 15.31703041323862
STARLINK-1536           
1 46070U 20055AV  26165.27968330 -.00011859  00000+0 -37136-3 0  9995
2 46070  53.1583  12.4364 0000982 124.4224 235.6870 15.31669169324032
STARLINK-1542           
1 46073U 20055AY  26165.30404868  .00001311  00000+0  53994-4 0  9994
2 46073  53.1606  15.2887 0001180  87.8405 272.2732 15.31701955323983
STARLINK-1549           
1 46074U 20055AZ  26165.27239687  .00035747  00000+0  12259-2 0  9993
2 46074  53.0494  12.6161 0002429 145.0724 215.0435 15.29861156324008
STARLINK-1551           
1 46075U 20055BA  26165.58335647  .00033184  00000+0  10761-2 0  9990
2 46075  53.1570  10.9570 0001077 103.2335 181.9048 15.31706869  5809
STARLINK-1552           
1 46076U 20055BB  26164.86514447  .00000021  00000+0  12444-4 0  9994
2 46076  53.1597  13.8859 0000953 100.5918 259.5191 15.31697354323958
STARLINK-1559           
1 46077U 20055BC  26165.22470263  .00045109  00000+0  11556-2 0  9990
2 46077  53.0247 341.2906 0000233 143.6554 216.4464 15.38960894324401
STARLINK-1566           
1 46079U 20055BE  26164.73928713 -.00000099  00000+0  85864-5 0  9991
2 46079  53.1602  14.3238 0000992  98.1361 261.9753 15.31691548323952
STARLINK-1568           
1 46080U 20055BF  26165.50031140  .00045066  00000+0  66637-3 0  9995
2 46080  53.0591 288.1417 0002865  63.4931 296.6372 15.54882748325211
STARLINK-1578           
1 46082U 20055BH  26164.87417698 -.00003256  00000+0 -93240-4 0  9990
2 46082  53.1591  14.2114 0001007  93.0560 267.0557 15.31693102323966
STARLINK-1579           
1 46083U 20055BJ  26164.86047048  .00004170  00000+0  14607-3 0  9991
2 46083  53.1596  13.8101 0001091  81.1028 279.0097 15.31700712323961
BSAT-4B                 
1 46112U 20056A   26164.49851758  .00000000  00000+0  00000+0 0  9991
2 46112   0.0192  98.5475 0003746  17.2668  75.2961  1.00268721 21354
MEV-2                   
1 46113U 20056B   26165.40336583 -.00000004  00000+0  00000+0 0  9993
2 46113   0.0108 324.0878 0000193 256.5276 186.2869  1.00269700 80524
GALAXY 30 (G-30)        
1 46114U 20056C   26165.45004994  .00000044  00000+0  00000+0 0  9990
2 46114   0.0177   5.0992 0002058  79.2407 215.4260  1.00270496 21262
STARLINK-1622           
1 46128U 20057M   26165.58335647  .00262301  00000+0  93445-3 0  9997
2 46128  53.0131 101.8593 0005477 103.1776 249.6650 15.87667463  5898
STARLINK-1623           
1 46129U 20057N   26165.58335647  .00017046  00000+0  10855-3 0  9996
2 46129  53.0382 140.6096 0005713  57.0319 235.5883 15.76585799  5935
STARLINK-1596           
1 46141U 20057AA  26165.17372478  .00198276  00000+0  22722-2 0  9998
2 46141  53.0324 125.8546 0006686  57.9644 302.2017 15.60927331322264
STARLINK-1597           
1 46142U 20057AB  26165.31949601  .00120012  00000+0  74666-3 0  9991
2 46142  53.0380 181.6858 0005242  45.2682 314.8763 15.76103540321487
STARLINK-1606           
1 46144U 20057AD  26165.58335647  .00456386  10089-3  87168-3 0  9990
2 46144  53.0303 132.2066 0003983 198.7359 155.2121 16.00049962  5852
